[{"OBJECT_NAME":"STARLINK-31695","OBJECT_ID":"2024-062C","EPOCH":"2025-08-19T22:44:32.525952","MEAN_MOTION":15.30196217,"ECCENTRICITY":0.0001257,"INCLINATION":53.1606,"RA_OF_ASC_NODE":112.7486,"ARG_OF_PERICENTER":79.2037,"MEAN_ANOMALY":280.9105,"EPHEMERIS_TYPE":0,"CLASSIFICATION_TYPE":"U","NORAD_CAT_ID":59376,"ELEMENT_SET_NO":999,"REV_AT_EPOCH":7874,"BSTAR":7.0077e-5,"MEAN_MOTION_DOT":1.717e-5,"MEAN_MOTION_DDOT":0},{"OBJECT_NAME":"STARLINK-31716","OBJECT_ID":"2024-062D","EPOCH":"2025-08-20T05:46:59.517696","MEAN_MOTION":15.30177207,"ECCENTRICITY":8.44e-5,"INCLINATION":53.1598,"RA_OF_ASC_NODE":62.728,"ARG_OF_PERICENTER":102.8456,"MEAN_ANOMALY":257.2639,"EPHEMERIS_TYPE":0,"CLASSIFICATION_TYPE":"U","NORAD_CAT_ID":59377,"ELEMENT_SET_NO":999,"REV_AT_EPOCH":7951,"BSTAR":-5.4063e-5,"MEAN_MOTION_DOT":-1.958e-5,"MEAN_MOTION_DDOT":0},{"OBJECT_NAME":"STARLINK-31710","OBJECT_ID":"2024-062E","EPOCH":"2025-08-19T22:59:43.738368","MEAN_MOTION":15.30208449,"ECCENTRICITY":0.0001388,"INCLINATION":53.1607,"RA_OF_ASC_NODE":112.8122,"ARG_OF_PERICENTER":85.9704,"MEAN_ANOMALY":274.1455,"EPHEMERIS_TYPE":0,"CLASSIFICATION_TYPE":"U","NORAD_CAT_ID":59378,"ELEMENT_SET_NO":999,"REV_AT_EPOCH":7862,"BSTAR":8.0399e-5,"MEAN_MOTION_DOT":2.023e-5,"MEAN_MOTION_DDOT":0},{"OBJECT_NAME":"STARLINK-31698","OBJECT_ID":"2024-062F","EPOCH":"2025-08-19T22:39:59.409504","MEAN_MOTION":15.30192683,"ECCENTRICITY":0.0001342,"INCLINATION":53.1599,"RA_OF_ASC_NODE":112.7405,"ARG_OF_PERICENTER":75.397,"MEAN_ANOMALY":284.718,"EPHEMERIS_TYPE":0,"CLASSIFICATION_TYPE":"U","NORAD_CAT_ID":59379,"ELEMENT_SET_NO":999,"REV_AT_EPOCH":7874,"BSTAR":5.5294e-5,"MEAN_MOTION_DOT":1.278e-5,"MEAN_MOTION_DDOT":0},{"OBJECT_NAME":"STARLINK-31680","OBJECT_ID":"2024-062G","EPOCH":"2025-08-20T09:40:48.435168","MEAN_MOTION":15.30190242,"ECCENTRICITY":0.0001416,"INCLINATION":53.1604,"RA_OF_ASC_NODE":113.4553,"ARG_OF_PERICENTER":82.2294,"MEAN_ANOMALY":277.8867,"EPHEMERIS_TYPE":0,"CLASSIFICATION_TYPE":"U","NORAD_CAT_ID":59380,"ELEMENT_SET_NO":999,"REV_AT_EPOCH":7848,"BSTAR":2.6632e-5,"MEAN_MOTION_DOT":4.29e-6,"MEAN_MOTION_DDOT":0},{"OBJECT_NAME":"STARLINK-31713","OBJECT_ID":"2024-062H","EPOCH":"2025-08-20T09:22:34.573152","MEAN_MOTION":15.30187662,"ECCENTRICITY":0.0001332,"INCLINATION":53.1591,"RA_OF_ASC_NODE":113.3757,"ARG_OF_PERICENTER":92.3549,"MEAN_ANOMALY":267.7605,"EPHEMERIS_TYPE":0,"CLASSIFICATION_TYPE":"U","NORAD_CAT_ID":59381,"ELEMENT_SET_NO":999,"REV_AT_EPOCH":7883,"BSTAR":2.6511e-5,"MEAN_MOTION_DOT":4.26e-6,"MEAN_MOTION_DDOT":0},{"OBJECT_NAME":"STARLINK-31705","OBJECT_ID":"2024-062J","EPOCH":"2025-08-19T22:55:10.907904","MEAN_MOTION":15.30197083,"ECCENTRICITY":0.0001138,"INCLINATION":53.1601,"RA_OF_ASC_NODE":112.793,"ARG_OF_PERICENTER":91.1071,"MEAN_ANOMALY":269.006,"EPHEMERIS_TYPE":0,"CLASSIFICATION_TYPE":"U","NORAD_CAT_ID":59382,"ELEMENT_SET_NO":999,"REV_AT_EPOCH":7874,"BSTAR":5.5087e-5,"MEAN_MOTION_DOT":1.273e-5,"MEAN_MOTION_DDOT":0},{"OBJECT_NAME":"STARLINK-31715","OBJECT_ID":"2024-062L","EPOCH":"2025-08-19T22:30:52.316064","MEAN_MOTION":15.30190797,"ECCENTRICITY":0.0001411,"INCLINATION":53.1599,"RA_OF_ASC_NODE":112.6884,"ARG_OF_PERICENTER":81.1409,"MEAN_ANOMALY":278.9751,"EPHEMERIS_TYPE":0,"CLASSIFICATION_TYPE":"U","NORAD_CAT_ID":59384,"ELEMENT_SET_NO":999,"REV_AT_EPOCH":7878,"BSTAR":3.613e-5,"MEAN_MOTION_DOT":7.11e-6,"MEAN_MOTION_DDOT":0},{"OBJECT_NAME":"STARLINK-31717","OBJECT_ID":"2024-062M","EPOCH":"2025-08-19T21:34:49.114848","MEAN_MOTION":15.30175849,"ECCENTRICITY":0.0001081,"INCLINATION":53.158,"RA_OF_ASC_NODE":113.1531,"ARG_OF_PERICENTER":74.3524,"MEAN_ANOMALY":285.7596,"EPHEMERIS_TYPE":0,"CLASSIFICATION_TYPE":"U","NORAD_CAT_ID":59385,"ELEMENT_SET_NO":999,"REV_AT_EPOCH":7879,"BSTAR":-0.00016753,"MEAN_MOTION_DOT":-5.313e-5,"MEAN_MOTION_DDOT":0},{"OBJECT_NAME":"STARLINK-31688","OBJECT_ID":"2024-062N","EPOCH":"2025-08-19T22:19:38.344224","MEAN_MOTION":15.30193329,"ECCENTRICITY":0.0001016,"INCLINATION":53.1594,"RA_OF_ASC_NODE":115.4809,"ARG_OF_PERICENTER":88.3548,"MEAN_ANOMALY":271.7569,"EPHEMERIS_TYPE":0,"CLASSIFICATION_TYPE":"U","NORAD_CAT_ID":59386,"ELEMENT_SET_NO":999,"REV_AT_EPOCH":7876,"BSTAR":1.0838e-5,"MEAN_MOTION_DOT":-3.8e-7,"MEAN_MOTION_DDOT":0},{"OBJECT_NAME":"STARLINK-31714","OBJECT_ID":"2024-062P","EPOCH":"2025-08-19T23:13:25.004928","MEAN_MOTION":15.30195763,"ECCENTRICITY":0.0001094,"INCLINATION":53.1596,"RA_OF_ASC_NODE":112.8711,"ARG_OF_PERICENTER":84.0894,"MEAN_ANOMALY":276.0231,"EPHEMERIS_TYPE":0,"CLASSIFICATION_TYPE":"U","NORAD_CAT_ID":59387,"ELEMENT_SET_NO":999,"REV_AT_EPOCH":7862,"BSTAR":2.9634e-5,"MEAN_MOTION_DOT":5.19e-6,"MEAN_MOTION_DDOT":0},{"OBJECT_NAME":"STARLINK-31643","OBJECT_ID":"2024-062Q","EPOCH":"2025-08-19T21:30:14.614272","MEAN_MOTION":15.30202614,"ECCENTRICITY":0.0001209,"INCLINATION":53.1597,"RA_OF_ASC_NODE":113.1323,"ARG_OF_PERICENTER":87.1511,"MEAN_ANOMALY":272.9628,"EPHEMERIS_TYPE":0,"CLASSIFICATION_TYPE":"U","NORAD_CAT_ID":59388,"ELEMENT_SET_NO":999,"REV_AT_EPOCH":7877,"BSTAR":4.6842e-5,"MEAN_MOTION_DOT":1.028e-5,"MEAN_MOTION_DDOT":0},{"OBJECT_NAME":"STARLINK-31647","OBJECT_ID":"2024-062R","EPOCH":"2025-08-20T00:00:04.000320","MEAN_MOTION":15.30179522,"ECCENTRICITY":0.0001172,"INCLINATION":53.1585,"RA_OF_ASC_NODE":112.8129,"ARG_OF_PERICENTER":87.7252,"MEAN_ANOMALY":61.8162,"EPHEMERIS_TYPE":0,"CLASSIFICATION_TYPE":"U","NORAD_CAT_ID":59389,"ELEMENT_SET_NO":999,"REV_AT_EPOCH":7880,"BSTAR":0.00070839,"MEAN_MOTION_DOT":0.00020666,"MEAN_MOTION_DDOT":0},{"OBJECT_NAME":"STARLINK-31649","OBJECT_ID":"2024-062S","EPOCH":"2025-08-19T22:49:06.076992","MEAN_MOTION":15.3019772,"ECCENTRICITY":8.56e-5,"INCLINATION":53.1592,"RA_OF_ASC_NODE":112.7639,"ARG_OF_PERICENTER":65.1275,"MEAN_ANOMALY":294.9814,"EPHEMERIS_TYPE":0,"CLASSIFICATION_TYPE":"U","NORAD_CAT_ID":59390,"ELEMENT_SET_NO":999,"REV_AT_EPOCH":7878,"BSTAR":4.5203e-5,"MEAN_MOTION_DOT":9.8e-6,"MEAN_MOTION_DDOT":0},{"OBJECT_NAME":"STARLINK-31644","OBJECT_ID":"2024-062T","EPOCH":"2025-08-19T22:15:05.172480","MEAN_MOTION":15.30184764,"ECCENTRICITY":0.0001153,"INCLINATION":53.1585,"RA_OF_ASC_NODE":115.4644,"ARG_OF_PERICENTER":117.5788,"MEAN_ANOMALY":242.533,"EPHEMERIS_TYPE":0,"CLASSIFICATION_TYPE":"U","NORAD_CAT_ID":59391,"ELEMENT_SET_NO":999,"REV_AT_EPOCH":7874,"BSTAR":5.5763e-5,"MEAN_MOTION_DOT":1.292e-5,"MEAN_MOTION_DDOT":0},{"OBJECT_NAME":"STARLINK-31626","OBJECT_ID":"2024-062U","EPOCH":"2025-08-20T01:34:25.153824","MEAN_MOTION":15.30193198,"ECCENTRICITY":0.000128,"INCLINATION":53.1596,"RA_OF_ASC_NODE":112.0621,"ARG_OF_PERICENTER":74.3565,"MEAN_ANOMALY":285.7577,"EPHEMERIS_TYPE":0,"CLASSIFICATION_TYPE":"U","NORAD_CAT_ID":59392,"ELEMENT_SET_NO":999,"REV_AT_EPOCH":7882,"BSTAR":1.4982e-5,"MEAN_MOTION_DOT":8.4e-7,"MEAN_MOTION_DDOT":0},{"OBJECT_NAME":"STARLINK-31443","OBJECT_ID":"2024-062V","EPOCH":"2025-08-19T22:04:21.293760","MEAN_MOTION":15.30209489,"ECCENTRICITY":8.33e-5,"INCLINATION":53.1595,"RA_OF_ASC_NODE":100.3144,"ARG_OF_PERICENTER":80.0937,"MEAN_ANOMALY":280.0158,"EPHEMERIS_TYPE":0,"CLASSIFICATION_TYPE":"U","NORAD_CAT_ID":59393,"ELEMENT_SET_NO":999,"REV_AT_EPOCH":7895,"BSTAR":-5.5469e-5,"MEAN_MOTION_DOT":-2.002e-5,"MEAN_MOTION_DDOT":0}]
