STARLINK-31695          
1 59376U 24062C   25231.94759868  .00001717  00000+0  70077-4 0  9993
2 59376  53.1606 112.7486 0001257  79.2037 280.9105 15.30196217 78741
STARLINK-31716          
1 59377U 24062D   25232.24096664 -.00001958  00000+0 -54063-4 0  9992
2 59377  53.1598  62.7280 0000844 102.8456 257.2639 15.30177207 79510
STARLINK-31710          
1 59378U 24062E   25231.95814512  .00002023  00000+0  80399-4 0  9993
2 59378  53.1607 112.8122 0001388  85.9704 274.1455 15.30208449 78623
STARLINK-31698          
1 59379U 24062F   25231.94443761  .00001278  00000+0  55294-4 0  9994
2 59379  53.1599 112.7405 0001342  75.3970 284.7180 15.30192683 78742
STARLINK-31680          
1 59380U 24062G   25232.40333837  .00000429  00000+0  26632-4 0  9991
2 59380  53.1604 113.4553 0001416  82.2294 277.8867 15.30190242 78486
STARLINK-31713          
1 59381U 24062H   25232.39067793  .00000426  00000+0  26511-4 0  9998
2 59381  53.1591 113.3757 0001332  92.3549 267.7605 15.30187662 78838
STARLINK-31705          
1 59382U 24062J   25231.95498736  .00001273  00000+0  55087-4 0  9996
2 59382  53.1601 112.7930 0001138  91.1071 269.0060 15.30197083 78746
STARLINK-31715          
1 59384U 24062L   25231.93810551  .00000711  00000+0  36130-4 0  9993
2 59384  53.1599 112.6884 0001411  81.1409 278.9751 15.30190797 78784
STARLINK-31717          
1 59385U 24062M   25231.89917957 -.00005313  00000+0 -16753-3 0  9990
2 59385  53.1580 113.1531 0001081  74.3524 285.7596 15.30175849 78790
STARLINK-31688          
1 59386U 24062N   25231.93030491 -.00000038  00000+0  10838-4 0  9992
2 59386  53.1594 115.4809 0001016  88.3548 271.7569 15.30193329 78763
STARLINK-31714          
1 59387U 24062P   25231.96765052  .00000519  00000+0  29634-4 0  9991
2 59387  53.1596 112.8711 0001094  84.0894 276.0231 15.30195763 78625
STARLINK-31643          
1 59388U 24062Q   25231.89600248  .00001028  00000+0  46842-4 0  9995
2 59388  53.1597 113.1323 0001209  87.1511 272.9628 15.30202614 78773
STARLINK-31647          
1 59389U 24062R   25232.00004630  .00020666  00000+0  70839-3 0  9994
2 59389  53.1585 112.8129 0001172  87.7252  61.8162 15.30179522 78801
STARLINK-31649          
1 59390U 24062S   25231.95076478  .00000980  00000+0  45203-4 0  9993
2 59390  53.1592 112.7639 0000856  65.1275 294.9814 15.30197720 78789
STARLINK-31644          
1 59391U 24062T   25231.92714320  .00001292  00000+0  55763-4 0  9995
2 59391  53.1585 115.4644 0001153 117.5788 242.5330 15.30184764 78742
STARLINK-31626          
1 59392U 24062U   25232.06556891  .00000084  00000+0  14982-4 0  9995
2 59392  53.1596 112.0621 0001280  74.3565 285.7577 15.30193198 78829
STARLINK-31443          
1 59393U 24062V   25231.91969090 -.00002002  00000+0 -55469-4 0  9997
2 59393  53.1595 100.3144 0000833  80.0937 280.0158 15.30209489 78957
